ONEWEB-0589             
1 54655U 22166P   25196.57471469  .00000148  00000+0  32796-3 0  9990
2 54655  87.9272 311.1400 0001804 126.1424 233.9877 13.21828708127071
ONEWEB-0590             
1 54656U 22166Q   25196.59822591  .00000024  00000+0  25850-4 0  9996
2 54656  87.9269 311.1136 0001541  93.9780 266.1530 13.21826754127060
ONEWEB-0591             
1 54657U 22166R   25196.83806452 -.00000070  00000+0 -20057-3 0  9998
2 54657  87.9278 311.0882 0001892 103.8192 256.3152 13.21824426127587
ONEWEB-0592             
1 54658U 22166S   25196.61412971  .00000039  00000+0  62289-4 0  9991
2 54658  87.9279 311.0841 0001840 102.7537 257.3803 13.21825209126974
ONEWEB-0593             
1 54659U 22166T   25196.86487866 -.00000019  00000+0 -78344-4 0  9993
2 54659  87.9274 311.0733 0001865 105.5827 254.5513 13.21824937127582
ONEWEB-0594             
1 54660U 22166U   25196.35392041  .00000085  00000+0  17454-3 0  9994
2 54660  87.9280 311.1889 0002031  99.6592 260.4772 13.21824412127066
ONEWEB-0595             
1 54661U 22166V   25196.86172440  .00000042  00000+0  70630-4 0  9999
2 54661  87.9275 311.0648 0001946  93.8157 266.3199 13.21825613127578
ONEWEB-0596             
1 54662U 22166W   25196.83490858 -.00000025  00000+0 -91820-4 0  9990
2 54662  87.9280 311.0842 0001893  98.6338 261.5011 13.21824590127579
ONEWEB-0597             
1 54663U 22166X   25196.81598519 -.00000003  00000+0 -37802-4 0  9998
2 54663  87.9283 311.0913 0001969 105.2811 254.8540 13.21824788127578
ONEWEB-0600             
1 54664U 22166Y   25196.57155661  .00000162  00000+0  35993-3 0  9991
2 54664  87.9266 311.1380 0002061 104.2113 255.9250 13.21825012127040
ONEWEB-0601             
1 54665U 22166Z   25196.56367111  .00000184  00000+0  41396-3 0  9994
2 54665  87.9279 311.1527 0001791 110.2143 249.9184 13.21825472127237
ONEWEB-0602             
1 54666U 22166AA  25196.30188168 -.00000004  00000+0 -40516-4 0  9997
2 54666  87.9284 311.2052 0002038 107.0608 253.0749 13.21824265127044
ONEWEB-0603             
1 54667U 22166AB  25196.30662901  .00000045  00000+0  76391-4 0  9993
2 54667  87.9262 311.1431 0001903 108.1535 251.9807 13.21825814126976
ONEWEB-0604             
1 54668U 22166AC  25196.82388285  .00000000  00000+0 -30450-4 0  9999
2 54668  87.9275 311.0606 0002060 106.8832 253.2527 13.21824390127472
ONEWEB-0605             
1 54669U 22166AD  25196.59047292  .00000035  00000+0  52124-4 0  9993
2 54669  87.9278 311.1378 0001435 117.2317 242.8963 13.21825017127040
ONEWEB-0606             
1 54670U 22166AE  25196.61256012  .00000008  00000+0 -11978-4 0  9993
2 54670  87.9279 311.1449 0001979  95.3197 264.8163 13.21824824127105
ONEWEB-0607             
1 54671U 22166AF  25196.57942905  .00000103  00000+0  21835-3 0  9999
2 54671  87.9274 311.1161 0001938 105.0100 255.1248 13.21823355127532
ONEWEB-0608             
1 54672U 22166AG  25196.81284489  .00000036  00000+0  55469-4 0  9999
2 54672  87.9264 311.0569 0001810 116.8470 243.2849 13.21826779127574
ONEWEB-0610             
1 54673U 22166AH  25196.86960783  .00000027  00000+0  35034-4 0  9999
2 54673  87.9274 311.0784 0001693 113.1543 246.9770 13.21826118127496
ONEWEB-0611             
1 54674U 22166AJ  25196.86330103  .00000061  00000+0  11696-3 0  9992
2 54674  87.9276 311.0764 0002105  95.0349 265.1025 13.21825115127489
ONEWEB-0612             
1 54675U 22166AK  25196.57312567  .00000123  00000+0  26516-3 0  9991
2 54675  87.9276 311.1115 0001878 106.1653 253.9687 13.21824474126967
ONEWEB-0615             
1 54676U 22166AL  25196.55421719  .00000070  00000+0  13761-3 0  9999
2 54676  87.9278 311.1417 0001986  99.7007 260.4351 13.21826141126970
ONEWEB-0655             
1 54677U 22166AM  25196.60309313  .00000008  00000+0 -13177-4 0  9995
2 54677  87.9278 311.1363 0002220 106.4102 253.7276 13.21827850126974
ONEWEB-0659             
1 54678U 22166AN  25196.84752735 -.00000005  00000+0 -43641-4 0  9999
2 54678  87.9277 311.0891 0001913  95.8562 264.2790 13.21824738127564
ONEWEB-0685             
1 54679U 22166AP  25196.77341460 -.00000079  00000+0 -22392-3 0  9991
2 54679  87.9280 311.0988 0001885 108.6912 251.4427 13.21824607127443
ONEWEB-0712             
1 54680U 22166AQ  25196.77347260 -.00000036  00000+0 -12834-3 0  9990
2 54680  87.9056 295.8171 0002566 106.1155 254.0259 13.16594618128250
ONEWEB-0714             
1 54681U 22166AR  25196.85542591 -.00000054  00000+0 -16281-3 0  9994
2 54681  87.9281 311.0752 0002007 106.8604 253.2750 13.21825816127577
ONEWEB-0532             
1 55140U 23004A   25196.56017282 -.00000095  00000+0 -27690-3 0  9990
2 55140  87.9049  72.8667 0001382  75.5087 284.6198 13.17648063123256
ONEWEB-0533             
1 55141U 23004B   25196.56538904 -.00000595  00000+0 -16882-2 0  9995
2 55141  87.8863  57.5947 0001778  89.7923 270.3410 13.12442838123904
ONEWEB-0541             
1 55142U 23004C   25196.40834337 -.00000266  00000+0 -78635-3 0  9998
2 55142  87.8824  88.1762 0001837  77.4416 282.6917 13.11414696121809
ONEWEB-0543             
1 55143U 23004D   25196.57566719  .00000069  00000+0  14305-3 0  9996
2 55143  87.9110  42.3963 0002076  90.9463 269.1907 13.18687832125334
ONEWEB-0544             
1 55144U 23004E   25196.56904894  .00000028  00000+0  37356-4 0  9993
2 55144  87.9111  42.3875 0002044  83.6726 276.4639 13.18686305125331
ONEWEB-0560             
1 55145U 23004F   25196.56245265  .00000057  00000+0  11307-3 0  9993
2 55145  87.9116  42.3633 0002080  82.1783 277.9585 13.18686947125345
ONEWEB-0565             
1 55146U 23004G   25196.85936649  .00000043  00000+0  76643-4 0  9999
2 55146  87.9111  42.3626 0001788  69.2556 290.8767 13.18685830125370
ONEWEB-0567             
1 55147U 23004H   25196.62514264  .00000010  00000+0 -62525-5 0  9990
2 55147  87.9116  42.3658 0001966  74.9952 285.1397 13.18685304125341
ONEWEB-0569             
1 55148U 23004J   25196.76022024  .00000266  00000+0  69455-3 0  9993
2 55148  87.8958  27.0451 0002578  71.8203 288.3206 13.13470476126017
ONEWEB-0570             
1 55149U 23004K   25196.84289613  .00002516  00000+0  63479-2 0  9991
2 55149  87.9112  42.3253 0001222  70.0088 290.1176 13.18676197125365
ONEWEB-0571             
1 55150U 23004L   25196.60864104  .00000031  00000+0  45720-4 0  9992
2 55150  87.9108  42.3786 0002410  55.1160 305.0198 13.18685406125349
ONEWEB-0572             
1 55151U 23004M   25196.59054610 -.00000045  00000+0 -14910-3 0  9997
2 55151  87.9054  72.8690 0001733  74.1555 285.9767 13.17649077123156
ONEWEB-0573             
1 55152U 23004N   25196.82967945  .00000086  00000+0  18606-3 0  9997
2 55152  87.9107  42.3414 0001715  56.4439 303.6857 13.18684698125368
ONEWEB-0588             
1 55153U 23004P   25196.59544130  .00000051  00000+0  95780-4 0  9990
2 55153  87.9114  42.3714 0001485  73.2355 286.8940 13.18684080125335
ONEWEB-0598             
1 55154U 23004Q   25196.61520348  .00000511  00000+0  14065-2 0  9995
2 55154  87.8824  88.1718 0002288  64.6080 295.5284 13.11415105121782
ONEWEB-0599             
1 55155U 23004R   25196.62767459  .00000027  00000+0  36788-4 0  9993
2 55155  87.9052  72.8661 0002018  78.9454 281.1905 13.17647709123166
ONEWEB-0614             
1 55156U 23004S   25196.68640821  .00000556  00000+0  15341-2 0  9990
2 55156  87.8825  88.1669 0001496  78.5695 281.5601 13.11418633121750
ONEWEB-0616             
1 55157U 23004T   25196.89766896  .00000081  00000+0  17459-3 0  9991
2 55157  87.9051  72.8031 0002780  91.5181 268.6269 13.17649121123413
ONEWEB-0617             
1 55158U 23004U   25196.59823505  .00000278  00000+0  74851-3 0  9997
2 55158  87.8822  88.1640 0001556  70.8760 289.2536 13.11418676121741
ONEWEB-0618             
1 55159U 23004V   25196.60721990  .00000955  00000+0  16411-3 0  9995
2 55159  86.9100 312.1431 0016886  87.4876 272.8272 14.67531560131738
ONEWEB-0619             
1 55160U 23004W   25196.62598257  .00000029  00000+0  40511-4 0  9998
2 55160  87.9047  72.8345 0001674  96.9987 263.1335 13.17649381123270
ONEWEB-0620             
1 55161U 23004X   25196.59316457 -.00000040  00000+0 -14782-3 0  9990
2 55161  87.8826  88.1856 0001863  69.9470 290.1858 13.11421659121716
ONEWEB-0621             
1 55162U 23004Y   25196.62028916  .00000328  00000+0  88868-3 0  9998
2 55162  87.8819  88.1368 0001659  83.6676 276.4641 13.11416534121691
ONEWEB-0622             
1 55163U 23004Z   25196.62537262  .00000175  00000+0  45798-3 0  9993
2 55163  87.8821  88.1594 0001136  62.7221 297.4022 13.11413868121682
ONEWEB-0623             
1 55164U 23004AA  25196.62092397  .00000010  00000+0 -78352-5 0  9992
2 55164  87.9050  72.8917 0001087  88.7600 271.3656 13.17647957123265
ONEWEB-0624             
1 55165U 23004AB  25196.88382720 -.00000152  00000+0 -45465-3 0  9998
2 55165  87.8862  57.5268 0001733  83.6597 276.4729 13.12942469123945
ONEWEB-0625             
1 55166U 23004AC  25196.68671214  .00000025  00000+0  32316-4 0  9995
2 55166  87.9052  72.8755 0001963  82.9172 277.2183 13.17647089123268
ONEWEB-0626             
1 55167U 23004AD  25196.60067470  .00000040  00000+0  70009-4 0  9999
2 55167  87.9054  72.8911 0002137  66.7877 293.3480 13.17649092123255
ONEWEB-0627             
1 55168U 23004AE  25196.58885421  .00000027  00000+0  37186-4 0  9995
2 55168  87.9047  72.8961 0001200  78.8038 281.3229 13.17646813123252
ONEWEB-0628             
1 55169U 23004AF  25196.58823937  .00000183  00000+0  47358-3 0  9994
2 55169  87.8865  57.5740 0001137  97.0501 263.0757 13.12444395123880
ONEWEB-0629             
1 55170U 23004AG  25196.56439725  .00000052  00000+0  99791-4 0  9996
2 55170  87.9061  72.8895 0001743  93.3239 266.8092 13.17648534123252
ONEWEB-0631             
1 55171U 23004AH  25196.58885473  .00000056  00000+0  11048-3 0  9996
2 55171  87.9125  42.3047 0001691  68.5832 291.5480 13.18685818125312
